
# Worst residual: 93.71 km
# MJD 60839.000000 (2025 Jun 13  0:00)
2023-098C = NORAD 57770 = Chandrayaan-3 PM
1 57770U 23098C   25164.49919926  .00000000  00000-0  00000-0 0 25768
2 57770 033.8646 003.3024 4144877 293.0987 297.1920 00.08058389    04

# Worst residual: 138.98 km
# MJD 60840.000000 (2025 Jun 14  0:00)
2023-098C = NORAD 57770 = Chandrayaan-3 PM
1 57770U 23098C   25165.49919926  .00000000  00000-0  00000-0 0 25769
2 57770 033.9027 003.2618 4312246 292.6246 327.7540 00.07777528    06

# Worst residual: 210.64 km
# MJD 60841.000000 (2025 Jun 15  0:00)
2023-098C = NORAD 57770 = Chandrayaan-3 PM
1 57770U 23098C   25166.49919926  .00000000  00000-0  00000-0 0 25760
2 57770 033.9457 003.2707 4532373 295.4242 354.5895 00.07488014    04

# Worst residual: 179.32 km
# MJD 60842.000000 (2025 Jun 16  0:00)
2023-098C = NORAD 57770 = Chandrayaan-3 PM
1 57770U 23098C   25167.49919926  .00000000  00000-0  00000-0 0 25761
2 57770 033.9199 003.3049 4364086 298.0887 021.7729 00.07818640    06

# Worst residual: 57.23 km
# MJD 60843.000000 (2025 Jun 17  0:00)
2023-098C = NORAD 57770 = Chandrayaan-3 PM
1 57770U 23098C   25168.49919926  .00000000  00000-0  00000-0 0 25762
2 57770 033.8988 003.2911 4173687 297.1844 053.1494 00.08164472    02

# Worst residual: 36.49 km
# MJD 60844.000000 (2025 Jun 18  0:00)
2023-098C = NORAD 57770 = Chandrayaan-3 PM
1 57770U 23098C   25169.49919926  .00000000  00000-0  00000-0 0 25763
2 57770 033.8959 003.2594 4104517 296.3095 084.6367 00.08291714    00

# Worst residual: 22.89 km
# MJD 60845.000000 (2025 Jun 19  0:00)
2023-098C = NORAD 57770 = Chandrayaan-3 PM
1 57770U 23098C   25170.49919926  .00000000  00000-0  00000-0 0 25765
2 57770 033.9017 003.2399 4073071 295.8749 115.5842 00.08329509    05

# Worst residual: 18.21 km
# MJD 60846.000000 (2025 Jun 20  0:00)
2023-098C = NORAD 57770 = Chandrayaan-3 PM
1 57770U 23098C   25171.49919926  .00000000  00000-0  00000-0 0 25766
2 57770 033.9069 003.2154 4050603 295.6304 146.2342 00.08334518    04

# Worst residual: 20.14 km
# MJD 60847.000000 (2025 Jun 21  0:00)
2023-098C = NORAD 57770 = Chandrayaan-3 PM
1 57770U 23098C   25172.49919926  .00000000  00000-0  00000-0 0 25767
2 57770 033.9125 003.1894 4027829 295.3597 176.8804 00.08323534    00

# Worst residual: 26.14 km
# MJD 60848.000000 (2025 Jun 22  0:00)
2023-098C = NORAD 57770 = Chandrayaan-3 PM
1 57770U 23098C   25173.49919926  .00000000  00000-0  00000-0 0 25768
2 57770 033.9124 003.1804 4006051 294.8833 207.7536 00.08297730    05

# Worst residual: 31.12 km
# MJD 60849.000000 (2025 Jun 23  0:00)
2023-098C = NORAD 57770 = Chandrayaan-3 PM
1 57770U 23098C   25174.49919926  .00000000  00000-0  00000-0 0 25769
2 57770 033.9079 003.1707 3993123 294.0759 239.0312 00.08247183    06

# Worst residual: 59.76 km
# MJD 60850.000000 (2025 Jun 24  0:00)
2023-098C = NORAD 57770 = Chandrayaan-3 PM
1 57770U 23098C   25175.49919926  .00000000  00000-0  00000-0 0 25760
2 57770 033.9011 003.1555 4004043 292.8345 270.7523 00.08145299    06

# Worst residual: 117.68 km
# MJD 60851.000000 (2025 Jun 25  0:00)
2023-098C = NORAD 57770 = Chandrayaan-3 PM
1 57770U 23098C   25176.49919926  .00000000  00000-0  00000-0 0 25761
2 57770 033.9065 003.1220 4075039 291.2253 302.6389 00.07939012    06

# Worst residual: 156.54 km
# MJD 60852.000000 (2025 Jun 26  0:00)
2023-098C = NORAD 57770 = Chandrayaan-3 PM
1 57770U 23098C   25177.49919926  .00000000  00000-0  00000-0 0 25762
2 57770 033.9524 003.1045 4297104 290.3229 333.2954 00.07511159    09

# Worst residual: 249.87 km
# MJD 60853.000000 (2025 Jun 27  0:00)
2023-098C = NORAD 57770 = Chandrayaan-3 PM
1 57770U 23098C   25178.49919926  .00000000  00000-0  00000-0 0 25763
2 57770 033.9814 003.1245 4520649 294.3125 358.3362 00.07195910    09

# Worst residual: 196.51 km
# MJD 60854.000000 (2025 Jun 28  0:00)
2023-098C = NORAD 57770 = Chandrayaan-3 PM
1 57770U 23098C   25179.49919926  .00000000  00000-0  00000-0 0 25764
2 57770 033.9353 003.1529 4276839 297.2570 025.0313 00.07656412    00

# Worst residual: 65.02 km
# MJD 60855.000000 (2025 Jun 29  0:00)
2023-098C = NORAD 57770 = Chandrayaan-3 PM
1 57770U 23098C   25180.49919926  .00000000  00000-0  00000-0 0 25766
2 57770 033.9110 003.1251 4084335 296.0469 056.3692 00.08020776    01

# Worst residual: 42.21 km
# MJD 60856.000000 (2025 Jun 30  0:00)
2023-098C = NORAD 57770 = Chandrayaan-3 PM
1 57770U 23098C   25181.49919926  .00000000  00000-0  00000-0 0 25767
2 57770 033.9119 003.1037 4024524 294.6728 087.9556 00.08178782    08

# Worst residual: 25.17 km
# MJD 60857.000000 (2025 Jul  1  0:00)
2023-098C = NORAD 57770 = Chandrayaan-3 PM
1 57770U 23098C   25182.49919926  .00000000  00000-0  00000-0 0 25768
2 57770 033.9174 003.0916 4016329 293.7594 119.0674 00.08252589    05

# Worst residual: 14.32 km
# MJD 60858.000000 (2025 Jul  2  0:00)
2023-098C = NORAD 57770 = Chandrayaan-3 PM
1 57770U 23098C   25183.49919926  .00000000  00000-0  00000-0 0 25769
2 57770 033.9220 003.0771 4026805 293.2092 149.8013 00.08291577    02

# Worst residual: 12.89 km
# MJD 60859.000000 (2025 Jul  3  0:00)
2023-098C = NORAD 57770 = Chandrayaan-3 PM
1 57770U 23098C   25184.49919926  .00000000  00000-0  00000-0 0 25760
2 57770 033.9251 003.0608 4042440 292.8642 180.3638 00.08313233    01

# Worst residual: 17.16 km
# MJD 60860.000000 (2025 Jul  4  0:00)
2023-098C = NORAD 57770 = Chandrayaan-3 PM
1 57770U 23098C   25185.49919926  .00000000  00000-0  00000-0 0 25761
2 57770 033.9286 003.0364 4056437 292.5644 210.9901 00.08319060    05

# Worst residual: 29.04 km
# MJD 60861.000000 (2025 Jul  5  0:00)
2023-098C = NORAD 57770 = Chandrayaan-3 PM
1 57770U 23098C   25186.49919926  .00000000  00000-0  00000-0 0 25762
2 57770 033.9320 003.0126 4069610 292.1191 241.8970 00.08300430    00

# Worst residual: 54.75 km
# MJD 60862.000000 (2025 Jul  6  0:00)
2023-098C = NORAD 57770 = Chandrayaan-3 PM
1 57770U 23098C   25187.49919926  .00000000  00000-0  00000-0 0 25763
2 57770 033.9388 002.9858 4091837 291.2780 273.3189 00.08229028    09

# Worst residual: 115.36 km
# MJD 60863.000000 (2025 Jul  7  0:00)
2023-098C = NORAD 57770 = Chandrayaan-3 PM
1 57770U 23098C   25188.49919926  .00000000  00000-0  00000-0 0 25764
2 57770 033.9477 002.9583 4160909 289.8204 305.2950 00.08035268    06

# Worst residual: 168.24 km
# MJD 60864.000000 (2025 Jul  8  0:00)
2023-098C = NORAD 57770 = Chandrayaan-3 PM
1 57770U 23098C   25189.49919926  .00000000  00000-0  00000-0 0 25765
2 57770 033.9818 002.9486 4376613 288.7030 336.3978 00.07583592    05

# Worst residual: 200.41 km
# MJD 60865.000000 (2025 Jul  9  0:00)
2023-098C = NORAD 57770 = Chandrayaan-3 PM
1 57770U 23098C   25190.49919926  .00000000  00000-0  00000-0 0 25767
2 57770 033.9985 002.9641 4515443 292.6186 001.7770 00.07409945    07
